ORBCOMM FM05            
1 25117U 97084F   24328.30461345  .00004440  00000+0  13139-2 0  9999
2 25117  45.0145 275.5872 0002876 296.0452  64.0102 14.44502082411766
ORBCOMM FM06            
1 25118U 97084G   24328.47633403  .00005141  00000+0  15094-2 0  9995
2 25118  45.0137 274.7642 0002270 312.7592 147.2816 14.44670783411785
ORBCOMM FM07            
1 25119U 97084H   24328.11657049  .00005094  00000+0  15001-2 0  9994
2 25119  45.0134 277.1724 0003311 282.4987  77.5494 14.44536658411722
ORBCOMM FM03            
1 25158U 98007B   24327.85791674  .00003472  00000+0  12858-2 0  9991
2 25158 107.9665  72.0122 0048824 249.9719 109.6160 14.33416576394467
ORBCOMM FM04            
1 25159U 98007C   24328.29815143  .00003494  00000+0  12895-2 0  9994
2 25159 107.9650  75.9910 0044494 247.0157 112.6285 14.33692999394819
ORBCOMM FM17            
1 25413U 98046A   24327.87016648  .00002091  00000+0  78836-3 0  9996
2 25413  44.9928 150.7428 0002283 237.4230 122.6396 14.34228020373543
ORBCOMM FM18            
1 25414U 98046B   24327.60404782  .00003458  00000+0  11941-2 0  9999
2 25414  44.9928  74.6792 0004723 293.7450  66.2903 14.37359034374510
ORBCOMM FM19            
1 25415U 98046C   24327.96223681  .00003676  00000+0  12705-2 0  9997
2 25415  44.9943  74.6642 0003933 282.2046 189.1799 14.37189231374527
